STARLINK-5436           
1 54795U 22175AP  25279.49397983 -.00004112  00000+0 -24037-3 0  9992
2 54795  53.2180   1.1594 0001257  90.7379 269.3758 15.08849953156858
STARLINK-5415           
1 54796U 22175AQ  25279.48662182 -.00000149  00000+0  87324-5 0  9993
2 54796  53.2177   1.1164 0001308  82.5087 277.6053 15.08833842156850
STARLINK-5435           
1 54797U 22175AR  25279.49908854  .00005067  00000+0  33616-3 0  9990
2 54797  53.2170  16.1502 0001499 103.1897 256.9262 15.08844743156647
STARLINK-5420           
1 54798U 22175AS  25279.48385713  .00001216  00000+0  94480-4 0  9992
2 54798  53.2191 351.1440 0001374  90.5968 269.5182 15.08835966156990
STARLINK-5421           
1 54799U 22175AT  25279.43604778 -.00000523  00000+0 -14742-4 0  9998
2 54799  53.2190 351.5586 0001729 104.8381 255.2803 15.08835752156981
STARLINK-5428           
1 54800U 22175AU  25279.49168409 -.00000341  00000+0 -33557-5 0  9997
2 54800  53.2193   6.1132 0001567  85.1399 274.9772 15.08833190156782
STARLINK-5429           
1 54801U 22175AV  25279.53856884 -.00001748  00000+0 -91744-4 0  9997
2 54801  53.2168  15.6926 0001792  80.5893 279.5301 15.08841313156650
STARLINK-5426           
1 54802U 22175AW  25279.39457660  .00001359  00000+0  10347-3 0  9996
2 54802  53.2169 321.2355 0001399  94.3204 265.7948 15.08841395157404
STARLINK-5430           
1 54803U 22175AX  25279.48338551  .00001803  00000+0  13136-3 0  9997
2 54803  53.2175  16.0461 0001462  97.1632 262.9527 15.08830155156645
STARLINK-5422           
1 54804U 22175AY  25279.53074457 -.00000453  00000+0 -10389-4 0  9996
2 54804  53.2184   0.6856 0001303  80.9085 279.2055 15.08845332156863
STARLINK-5417           
1 54805U 22175AZ  25279.48293091 -.00001014  00000+0 -45621-4 0  9999
2 54805  53.2173   1.0909 0001450  94.9322 265.1835 15.08837361156850
STARLINK-5412           
1 54806U 22175BA  25279.47187770  .00000173  00000+0  28985-4 0  9992
2 54806  53.2194   1.0249 0001573  97.9577 262.1594 15.08838228156854
STARLINK-5410           
1 54807U 22175BB  25279.47556416 -.00001294  00000+0 -63248-4 0  9998
2 54807  53.2188   1.0427 0001656 109.1154 251.0017 15.08833894156856
STARLINK-5413           
1 54808U 22175BC  25279.44940367 -.00000060  00000+0  14286-4 0  9995
2 54808  53.2189 346.7021 0001246  86.9676 273.1458 15.08838813157056
STARLINK-5414           
1 54809U 22175BD  25279.53442809  .00000528  00000+0  51245-4 0  9998
2 54809  53.2203   0.7086 0001600  99.0635 261.0538 15.08841624156863
STARLINK-5408           
1 54810U 22175BE  25279.48891808  .00000582  00000+0  54686-4 0  9993
2 54810  53.2180 356.1271 0001533  88.5909 271.5259 15.08840204156921
STARLINK-5424           
1 54811U 22175BF  25279.51568344  .00010621  00000+0  68399-3 0  9994
2 54811  53.2193 356.2840 0001448 103.9629 256.1524 15.08862260156925
