[{"OBJECT_NAME":"STARLINK-5436","OBJECT_ID":"2022-175AP","EPOCH":"2025-10-06T11:51:19.857312","MEAN_MOTION":15.08849953,"ECCENTRICITY":0.0001257,"INCLINATION":53.218,"RA_OF_ASC_NODE":1.1594,"ARG_OF_PERICENTER":90.7379,"MEAN_ANOMALY":269.3758,"EPHEMERIS_TYPE":0,"CLASSIFICATION_TYPE":"U","NORAD_CAT_ID":54795,"ELEMENT_SET_NO":999,"REV_AT_EPOCH":15685,"BSTAR":-0.00024037,"MEAN_MOTION_DOT":-4.112e-5,"MEAN_MOTION_DDOT":0},{"OBJECT_NAME":"STARLINK-5415","OBJECT_ID":"2022-175AQ","EPOCH":"2025-10-06T11:40:44.125248","MEAN_MOTION":15.08833842,"ECCENTRICITY":0.0001308,"INCLINATION":53.2177,"RA_OF_ASC_NODE":1.1164,"ARG_OF_PERICENTER":82.5087,"MEAN_ANOMALY":277.6053,"EPHEMERIS_TYPE":0,"CLASSIFICATION_TYPE":"U","NORAD_CAT_ID":54796,"ELEMENT_SET_NO":999,"REV_AT_EPOCH":15685,"BSTAR":8.7324e-6,"MEAN_MOTION_DOT":-1.49e-6,"MEAN_MOTION_DDOT":0},{"OBJECT_NAME":"STARLINK-5435","OBJECT_ID":"2022-175AR","EPOCH":"2025-10-06T11:58:41.249856","MEAN_MOTION":15.08844743,"ECCENTRICITY":0.0001499,"INCLINATION":53.217,"RA_OF_ASC_NODE":16.1502,"ARG_OF_PERICENTER":103.1897,"MEAN_ANOMALY":256.9262,"EPHEMERIS_TYPE":0,"CLASSIFICATION_TYPE":"U","NORAD_CAT_ID":54797,"ELEMENT_SET_NO":999,"REV_AT_EPOCH":15664,"BSTAR":0.00033616,"MEAN_MOTION_DOT":5.067e-5,"MEAN_MOTION_DDOT":0},{"OBJECT_NAME":"STARLINK-5420","OBJECT_ID":"2022-175AS","EPOCH":"2025-10-06T11:36:45.256032","MEAN_MOTION":15.08835966,"ECCENTRICITY":0.0001374,"INCLINATION":53.2191,"RA_OF_ASC_NODE":351.144,"ARG_OF_PERICENTER":90.5968,"MEAN_ANOMALY":269.5182,"EPHEMERIS_TYPE":0,"CLASSIFICATION_TYPE":"U","NORAD_CAT_ID":54798,"ELEMENT_SET_NO":999,"REV_AT_EPOCH":15699,"BSTAR":9.448e-5,"MEAN_MOTION_DOT":1.216e-5,"MEAN_MOTION_DDOT":0},{"OBJECT_NAME":"STARLINK-5421","OBJECT_ID":"2022-175AT","EPOCH":"2025-10-06T10:27:54.528192","MEAN_MOTION":15.08835752,"ECCENTRICITY":0.0001729,"INCLINATION":53.219,"RA_OF_ASC_NODE":351.5586,"ARG_OF_PERICENTER":104.8381,"MEAN_ANOMALY":255.2803,"EPHEMERIS_TYPE":0,"CLASSIFICATION_TYPE":"U","NORAD_CAT_ID":54799,"ELEMENT_SET_NO":999,"REV_AT_EPOCH":15698,"BSTAR":-1.4742e-5,"MEAN_MOTION_DOT":-5.23e-6,"MEAN_MOTION_DDOT":0},{"OBJECT_NAME":"STARLINK-5428","OBJECT_ID":"2022-175AU","EPOCH":"2025-10-06T11:48:01.505376","MEAN_MOTION":15.0883319,"ECCENTRICITY":0.0001567,"INCLINATION":53.2193,"RA_OF_ASC_NODE":6.1132,"ARG_OF_PERICENTER":85.1399,"MEAN_ANOMALY":274.9772,"EPHEMERIS_TYPE":0,"CLASSIFICATION_TYPE":"U","NORAD_CAT_ID":54800,"ELEMENT_SET_NO":999,"REV_AT_EPOCH":15678,"BSTAR":-3.3557e-6,"MEAN_MOTION_DOT":-3.41e-6,"MEAN_MOTION_DDOT":0},{"OBJECT_NAME":"STARLINK-5429","OBJECT_ID":"2022-175AV","EPOCH":"2025-10-06T12:55:32.347776","MEAN_MOTION":15.08841313,"ECCENTRICITY":0.0001792,"INCLINATION":53.2168,"RA_OF_ASC_NODE":15.6926,"ARG_OF_PERICENTER":80.5893,"MEAN_ANOMALY":279.5301,"EPHEMERIS_TYPE":0,"CLASSIFICATION_TYPE":"U","NORAD_CAT_ID":54801,"ELEMENT_SET_NO":999,"REV_AT_EPOCH":15665,"BSTAR":-9.1744e-5,"MEAN_MOTION_DOT":-1.748e-5,"MEAN_MOTION_DDOT":0},{"OBJECT_NAME":"STARLINK-5426","OBJECT_ID":"2022-175AW","EPOCH":"2025-10-06T09:28:11.418240","MEAN_MOTION":15.08841395,"ECCENTRICITY":0.0001399,"INCLINATION":53.2169,"RA_OF_ASC_NODE":321.2355,"ARG_OF_PERICENTER":94.3204,"MEAN_ANOMALY":265.7948,"EPHEMERIS_TYPE":0,"CLASSIFICATION_TYPE":"U","NORAD_CAT_ID":54802,"ELEMENT_SET_NO":999,"REV_AT_EPOCH":15740,"BSTAR":0.00010347,"MEAN_MOTION_DOT":1.359e-5,"MEAN_MOTION_DDOT":0},{"OBJECT_NAME":"STARLINK-5430","OBJECT_ID":"2022-175AX","EPOCH":"2025-10-06T11:36:04.508064","MEAN_MOTION":15.08830155,"ECCENTRICITY":0.0001462,"INCLINATION":53.2175,"RA_OF_ASC_NODE":16.0461,"ARG_OF_PERICENTER":97.1632,"MEAN_ANOMALY":262.9527,"EPHEMERIS_TYPE":0,"CLASSIFICATION_TYPE":"U","NORAD_CAT_ID":54803,"ELEMENT_SET_NO":999,"REV_AT_EPOCH":15664,"BSTAR":0.00013136,"MEAN_MOTION_DOT":1.803e-5,"MEAN_MOTION_DDOT":0},{"OBJECT_NAME":"STARLINK-5422","OBJECT_ID":"2022-175AY","EPOCH":"2025-10-06T12:44:16.330848","MEAN_MOTION":15.08845332,"ECCENTRICITY":0.0001303,"INCLINATION":53.2184,"RA_OF_ASC_NODE":0.6856,"ARG_OF_PERICENTER":80.9085,"MEAN_ANOMALY":279.2055,"EPHEMERIS_TYPE":0,"CLASSIFICATION_TYPE":"U","NORAD_CAT_ID":54804,"ELEMENT_SET_NO":999,"REV_AT_EPOCH":15686,"BSTAR":-1.0389e-5,"MEAN_MOTION_DOT":-4.53e-6,"MEAN_MOTION_DDOT":0},{"OBJECT_NAME":"STARLINK-5417","OBJECT_ID":"2022-175AZ","EPOCH":"2025-10-06T11:35:25.230624","MEAN_MOTION":15.08837361,"ECCENTRICITY":0.000145,"INCLINATION":53.2173,"RA_OF_ASC_NODE":1.0909,"ARG_OF_PERICENTER":94.9322,"MEAN_ANOMALY":265.1835,"EPHEMERIS_TYPE":0,"CLASSIFICATION_TYPE":"U","NORAD_CAT_ID":54805,"ELEMENT_SET_NO":999,"REV_AT_EPOCH":15685,"BSTAR":-4.5621e-5,"MEAN_MOTION_DOT":-1.014e-5,"MEAN_MOTION_DDOT":0},{"OBJECT_NAME":"STARLINK-5412","OBJECT_ID":"2022-175BA","EPOCH":"2025-10-06T11:19:30.233280","MEAN_MOTION":15.08838228,"ECCENTRICITY":0.0001573,"INCLINATION":53.2194,"RA_OF_ASC_NODE":1.0249,"ARG_OF_PERICENTER":97.9577,"MEAN_ANOMALY":262.1594,"EPHEMERIS_TYPE":0,"CLASSIFICATION_TYPE":"U","NORAD_CAT_ID":54806,"ELEMENT_SET_NO":999,"REV_AT_EPOCH":15685,"BSTAR":2.8985e-5,"MEAN_MOTION_DOT":1.73e-6,"MEAN_MOTION_DDOT":0},{"OBJECT_NAME":"STARLINK-5410","OBJECT_ID":"2022-175BB","EPOCH":"2025-10-06T11:24:48.743424","MEAN_MOTION":15.08833894,"ECCENTRICITY":0.0001656,"INCLINATION":53.2188,"RA_OF_ASC_NODE":1.0427,"ARG_OF_PERICENTER":109.1154,"MEAN_ANOMALY":251.0017,"EPHEMERIS_TYPE":0,"CLASSIFICATION_TYPE":"U","NORAD_CAT_ID":54807,"ELEMENT_SET_NO":999,"REV_AT_EPOCH":15685,"BSTAR":-6.3248e-5,"MEAN_MOTION_DOT":-1.294e-5,"MEAN_MOTION_DDOT":0},{"OBJECT_NAME":"STARLINK-5413","OBJECT_ID":"2022-175BC","EPOCH":"2025-10-06T10:47:08.477088","MEAN_MOTION":15.08838813,"ECCENTRICITY":0.0001246,"INCLINATION":53.2189,"RA_OF_ASC_NODE":346.7021,"ARG_OF_PERICENTER":86.9676,"MEAN_ANOMALY":273.1458,"EPHEMERIS_TYPE":0,"CLASSIFICATION_TYPE":"U","NORAD_CAT_ID":54808,"ELEMENT_SET_NO":999,"REV_AT_EPOCH":15705,"BSTAR":1.4286e-5,"MEAN_MOTION_DOT":-6.0e-7,"MEAN_MOTION_DDOT":0},{"OBJECT_NAME":"STARLINK-5414","OBJECT_ID":"2022-175BD","EPOCH":"2025-10-06T12:49:34.586976","MEAN_MOTION":15.08841624,"ECCENTRICITY":0.00016,"INCLINATION":53.2203,"RA_OF_ASC_NODE":0.7086,"ARG_OF_PERICENTER":99.0635,"MEAN_ANOMALY":261.0538,"EPHEMERIS_TYPE":0,"CLASSIFICATION_TYPE":"U","NORAD_CAT_ID":54809,"ELEMENT_SET_NO":999,"REV_AT_EPOCH":15686,"BSTAR":5.1245e-5,"MEAN_MOTION_DOT":5.28e-6,"MEAN_MOTION_DDOT":0},{"OBJECT_NAME":"STARLINK-5408","OBJECT_ID":"2022-175BE","EPOCH":"2025-10-06T11:44:02.522112","MEAN_MOTION":15.08840204,"ECCENTRICITY":0.0001533,"INCLINATION":53.218,"RA_OF_ASC_NODE":356.1271,"ARG_OF_PERICENTER":88.5909,"MEAN_ANOMALY":271.5259,"EPHEMERIS_TYPE":0,"CLASSIFICATION_TYPE":"U","NORAD_CAT_ID":54810,"ELEMENT_SET_NO":999,"REV_AT_EPOCH":15692,"BSTAR":5.4686e-5,"MEAN_MOTION_DOT":5.82e-6,"MEAN_MOTION_DDOT":0},{"OBJECT_NAME":"STARLINK-5424","OBJECT_ID":"2022-175BF","EPOCH":"2025-10-06T12:22:35.049216","MEAN_MOTION":15.0886226,"ECCENTRICITY":0.0001448,"INCLINATION":53.2193,"RA_OF_ASC_NODE":356.284,"ARG_OF_PERICENTER":103.9629,"MEAN_ANOMALY":256.1524,"EPHEMERIS_TYPE":0,"CLASSIFICATION_TYPE":"U","NORAD_CAT_ID":54811,"ELEMENT_SET_NO":999,"REV_AT_EPOCH":15692,"BSTAR":0.00068399,"MEAN_MOTION_DOT":0.00010621,"MEAN_MOTION_DDOT":0}]
